     2.11           N: GPS NAV DATA                         RINEX VERSION / TYPE
RTKCONV 2.4.2                           20230831 194817 UTC PGM / RUN BY / DATE 
log: C:\Users\oo\Desktop\divers\verniquet\Reseau\verniquet  COMMENT             
format: u-blox                                              COMMENT             
                                                            END OF HEADER       
 9 23  8 31 14  0  0.0 -.722454860806E-04  .101181285572E-10  .000000000000E+00
     .460000000000E+02 -.127062500000E+03  .459340561950E-08 -.326037522623E+00
    -.659190118313E-05  .268346338999E-02  .862404704094E-05  .515355806351E+04
     .396000000000E+06 -.782310962677E-07  .269373780792E+01 -.409781932831E-07
     .957000535828E+00  .211531250000E+03  .194376954692E+01 -.822391398760E-08
    -.539665336370E-09  .100000000000E+01  .227700000000E+04  .000000000000E+00
     .240000000000E+01  .000000000000E+00  .931322574615E-09  .460000000000E+02
     .391146000000E+06  .400000000000E+01
 4 23  8 31 14  0  0.0  .142158009112E-03  .113686837722E-10  .000000000000E+00
     .182000000000E+03 -.128968750000E+03  .432125142604E-08 -.122316976428E+01
    -.671483576298E-05  .252973940223E-02  .970624387264E-05  .515363528252E+04
     .396000000000E+06 -.558793544769E-08  .275116728745E+01 -.145286321640E-06
     .963678401371E+00  .195625000000E+03 -.303355634800E+01 -.801854829044E-08
    -.556451749877E-09  .100000000000E+01  .227700000000E+04  .000000000000E+00
     .240000000000E+01  .000000000000E+00 -.419095158577E-08  .182000000000E+03
     .391146000000E+06  .400000000000E+01
 6 23  8 31 14  0  0.0  .558123458177E-03 -.602540239925E-11  .000000000000E+00
     .400000000000E+02  .104343750000E+03  .379908681864E-08 -.281818191156E+01
     .555627048016E-05  .271509948652E-02  .110585242510E-04  .515373762131E+04
     .396000000000E+06 -.800937414169E-07  .632098268356E+00  .353902578354E-07
     .989609622036E+00  .181312500000E+03 -.793072317114E+00 -.764746140461E-08
     .443232748137E-09  .100000000000E+01  .227700000000E+04  .000000000000E+00
     .240000000000E+01  .000000000000E+00  .372529029846E-08  .400000000000E+02
     .391146000000E+06  .400000000000E+01
 3 23  8 31 14  0  0.0 -.159861519933E-03  .194404492504E-10  .000000000000E+00
     .127000000000E+03  .280625000000E+02  .468805241906E-08  .205008634445E+01
     .123493373394E-05  .511491566431E-02  .149011611938E-05  .515360250282E+04
     .396000000000E+06 -.912696123123E-07  .167039387283E+01 -.540167093277E-07
     .979997646070E+00  .359281250000E+03  .110245406390E+01 -.841249327125E-08
     .553594488004E-10  .100000000000E+01  .227700000000E+04  .000000000000E+00
     .240000000000E+01  .000000000000E+00  .186264514923E-08  .127000000000E+03
     .391146000000E+06  .400000000000E+01
19 23  8 31 14  0  0.0  .365139450878E-03  .511590769747E-11  .000000000000E+00
     .108000000000E+03 -.440312500000E+02  .417195949314E-08  .122649027087E+01
    -.228546559811E-05  .943642097991E-02  .114459544420E-04  .515364611435E+04
     .396000000000E+06  .186264514923E-06 -.318807475725E+00 -.167638063431E-07
     .972216580837E+00  .166000000000E+03  .240204951841E+01 -.780961101593E-08
    -.458590530708E-09  .100000000000E+01  .227700000000E+04  .000000000000E+00
     .240000000000E+01  .000000000000E+00 -.153668224812E-07  .108000000000E+03
     .391146000000E+06  .400000000000E+01
11 23  8 31 14  0  0.0 -.346415676177E-03 -.178488335223E-10  .000000000000E+00
     .700000000000E+02  .119218750000E+03  .440804075545E-08 -.144247168373E+01
     .625103712082E-05  .109933700878E-02  .105109065771E-04  .515359112549E+04
     .396000000000E+06  .931322574615E-08  .671220033249E+00  .428408384323E-07
     .965869969687E+00  .180000000000E+03 -.279972664408E+01 -.801997692137E-08
     .436803908922E-09  .100000000000E+01  .227700000000E+04  .000000000000E+00
     .240000000000E+01  .000000000000E+00 -.838190317154E-08  .582000000000E+03
     .391146000000E+06  .400000000000E+01
17 23  8 31 14  0  0.0  .723361503333E-03  .454747350886E-12  .000000000000E+00
     .330000000000E+02 -.431875000000E+02  .424267672452E-08 -.877916982389E+00
    -.230222940445E-05  .136927573476E-01  .118017196655E-04  .515357430649E+04
     .396000000000E+06 -.262632966042E-06 -.363252708808E+00  .689178705215E-07
     .973085674136E+00  .166875000000E+03 -.140307751032E+01 -.807283626603E-08
    -.393230665350E-09  .100000000000E+01  .227700000000E+04  .000000000000E+00
     .240000000000E+01  .000000000000E+00 -.111758708954E-07  .330000000000E+02
     .391146000000E+06  .400000000000E+01
31 23  8 31 14  0  0.0 -.222693197429E-03 -.568434188608E-12  .000000000000E+00
     .210000000000E+02  .284062500000E+02  .434268089009E-08  .171360896150E+01
     .161305069923E-05  .104065608466E-01  .134743750095E-04  .515362594795E+04
     .396000000000E+06 -.119209289551E-06 -.249765517647E+01  .577419996262E-07
     .954655018791E+00  .122531250000E+03  .574770464560E+00 -.800319050787E-08
     .453590322429E-09  .100000000000E+01  .227700000000E+04  .000000000000E+00
     .240000000000E+01  .000000000000E+00 -.130385160446E-07  .210000000000E+02
     .391146000000E+06  .400000000000E+01
 7 23  8 31 13 59 44.0  .802902504802E-04 -.106865627458E-10  .000000000000E+00
     .130000000000E+02  .273437500000E+02  .437875382124E-08  .256301281472E+01
     .127032399178E-05  .175462787738E-01  .124908983707E-04  .515373120499E+04
     .395984000000E+06  .819563865662E-07 -.251804323230E+01 -.286847352982E-06
     .950612253456E+00  .128593750000E+03 -.217477827080E+01 -.768639159763E-08
     .488948938114E-09  .100000000000E+01  .227700000000E+04  .000000000000E+00
     .240000000000E+01  .000000000000E+00 -.111758708954E-07  .130000000000E+02
     .391146000000E+06  .400000000000E+01
26 23  8 31 14  0  0.0  .230654608458E-03 -.170530256582E-11  .000000000000E+00
     .900000000000E+01  .279375000000E+02  .566130724474E-08  .973905156956E+00
     .155158340931E-05  .811197003350E-02  .349618494511E-05  .515373390961E+04
     .396000000000E+06 -.106170773506E-06 -.154369435181E+01  .949949026108E-07
     .932652783543E+00  .296343750000E+03  .467221006407E+00 -.888679874227E-08
     .176078762959E-09  .100000000000E+01  .227700000000E+04  .000000000000E+00
     .240000000000E+01  .000000000000E+00  .698491930962E-08  .900000000000E+01
     .391146000000E+06  .400000000000E+01
20 23  8 31 14  0  0.0  .414320267737E-03 -.204636307899E-11  .000000000000E+00
     .470000000000E+02  .554062500000E+02  .543022619072E-08 -.216988774005E+01
     .302307307720E-05  .406904448755E-02  .120699405670E-05  .515360530090E+04
     .396000000000E+06  .113621354103E-06  .149835794414E+01 -.143423676491E-06
     .949542089382E+00  .348125000000E+03 -.286142364144E+01 -.884393981416E-08
     .200008331150E-09  .100000000000E+01  .227700000000E+04  .000000000000E+00
     .240000000000E+01  .000000000000E+00 -.838190317154E-08  .470000000000E+02
     .392226000000E+06  .400000000000E+01
16 23  8 31 13 59 44.0 -.460810028017E-03  .522959453519E-11  .000000000000E+00
     .200000000000E+01  .296875000000E+01  .498985070445E-08  .104028218724E+00
     .292435288429E-06  .133548650192E-01  .371038913727E-05  .515363863373E+04
     .395984000000E+06 -.931322574615E-08 -.138452088896E+01  .245869159698E-06
     .963737823640E+00  .309875000000E+03  .793161445398E+00 -.866893252441E-08
     .853606984729E-10  .100000000000E+01  .227700000000E+04  .000000000000E+00
     .240000000000E+01  .000000000000E+00 -.102445483208E-07  .200000000000E+01
     .392826000000E+06  .400000000000E+01
30 23  8 31 14  0  0.0 -.491868238896E-03  .318323145621E-11  .000000000000E+00
     .640000000000E+02  .368437500000E+02  .479734268572E-08  .248005601158E+01
     .176765024662E-05  .659362296574E-02  .119600445032E-04  .515377950096E+04
     .396000000000E+06 -.800937414169E-07 -.251339336035E+01 -.130385160446E-06
     .935736456859E+00  .135687500000E+03 -.254576726931E+01 -.811248077453E-08
     .451090218290E-09  .100000000000E+01  .227700000000E+04  .000000000000E+00
     .240000000000E+01  .000000000000E+00  .372529029846E-08  .640000000000E+02
     .393186000000E+06  .400000000000E+01
